[{"OBJECT_NAME":"KUIPER-00082","OBJECT_ID":"2025-151N","EPOCH":"2026-03-14T21:44:21.946848","MEAN_MOTION":14.79931528,"ECCENTRICITY":6.714e-5,"INCLINATION":51.9006,"RA_OF_ASC_NODE":265.0372,"ARG_OF_PERICENTER":94.5062,"MEAN_ANOMALY":265.5977,"EPHEMERIS_TYPE":0,"CLASSIFICATION_TYPE":"U","NORAD_CAT_ID":64828,"ELEMENT_SET_NO":999,"REV_AT_EPOCH":3625,"BSTAR":0.0005640771,"MEAN_MOTION_DOT":4.081e-5,"MEAN_MOTION_DDOT":0},{"OBJECT_NAME":"KUIPER-00083","OBJECT_ID":"2025-151P","EPOCH":"2026-03-14T19:55:31.280160","MEAN_MOTION":14.79912231,"ECCENTRICITY":7.912e-5,"INCLINATION":51.8991,"RA_OF_ASC_NODE":272.8597,"ARG_OF_PERICENTER":100.8467,"MEAN_ANOMALY":259.2584,"EPHEMERIS_TYPE":0,"CLASSIFICATION_TYPE":"U","NORAD_CAT_ID":64829,"ELEMENT_SET_NO":999,"REV_AT_EPOCH":3732,"BSTAR":0.0002608228,"MEAN_MOTION_DOT":1.767e-5,"MEAN_MOTION_DDOT":0},{"OBJECT_NAME":"KUIPER-00084","OBJECT_ID":"2025-151Q","EPOCH":"2026-03-14T21:17:11.357664","MEAN_MOTION":14.79912396,"ECCENTRICITY":6.114e-5,"INCLINATION":51.9005,"RA_OF_ASC_NODE":282.5941,"ARG_OF_PERICENTER":77.458,"MEAN_ANOMALY":282.645,"EPHEMERIS_TYPE":0,"CLASSIFICATION_TYPE":"U","NORAD_CAT_ID":64830,"ELEMENT_SET_NO":999,"REV_AT_EPOCH":3600,"BSTAR":0.00057240479,"MEAN_MOTION_DOT":4.143e-5,"MEAN_MOTION_DDOT":0},{"OBJECT_NAME":"KUIPER-00085","OBJECT_ID":"2025-151R","EPOCH":"2026-03-14T19:18:36.798048","MEAN_MOTION":14.79926504,"ECCENTRICITY":8.699e-5,"INCLINATION":51.9018,"RA_OF_ASC_NODE":265.5132,"ARG_OF_PERICENTER":106.135,"MEAN_ANOMALY":253.9708,"EPHEMERIS_TYPE":0,"CLASSIFICATION_TYPE":"U","NORAD_CAT_ID":64831,"ELEMENT_SET_NO":999,"REV_AT_EPOCH":3623,"BSTAR":0.00060501698,"MEAN_MOTION_DOT":4.393e-5,"MEAN_MOTION_DDOT":0},{"OBJECT_NAME":"KUIPER-00086","OBJECT_ID":"2025-151S","EPOCH":"2026-03-14T22:17:30.717600","MEAN_MOTION":14.79937069,"ECCENTRICITY":9.455e-5,"INCLINATION":51.9004,"RA_OF_ASC_NODE":274.9332,"ARG_OF_PERICENTER":76.4762,"MEAN_ANOMALY":283.6306,"EPHEMERIS_TYPE":0,"CLASSIFICATION_TYPE":"U","NORAD_CAT_ID":64832,"ELEMENT_SET_NO":999,"REV_AT_EPOCH":3611,"BSTAR":0.00056699976,"MEAN_MOTION_DOT":4.104e-5,"MEAN_MOTION_DDOT":0},{"OBJECT_NAME":"KUIPER-00087","OBJECT_ID":"2025-151T","EPOCH":"2026-03-14T21:07:22.850976","MEAN_MOTION":14.79929916,"ECCENTRICITY":4.769e-5,"INCLINATION":51.8981,"RA_OF_ASC_NODE":257.6259,"ARG_OF_PERICENTER":79.7436,"MEAN_ANOMALY":280.358,"EPHEMERIS_TYPE":0,"CLASSIFICATION_TYPE":"U","NORAD_CAT_ID":64833,"ELEMENT_SET_NO":999,"REV_AT_EPOCH":3634,"BSTAR":-4.4209246e-5,"MEAN_MOTION_DOT":-5.58e-6,"MEAN_MOTION_DDOT":0},{"OBJECT_NAME":"KUIPER-00089","OBJECT_ID":"2025-151U","EPOCH":"2026-03-14T19:21:53.830656","MEAN_MOTION":14.79701684,"ECCENTRICITY":0.00012576,"INCLINATION":51.8993,"RA_OF_ASC_NODE":262.9592,"ARG_OF_PERICENTER":91.8041,"MEAN_ANOMALY":268.3065,"EPHEMERIS_TYPE":0,"CLASSIFICATION_TYPE":"U","NORAD_CAT_ID":64834,"ELEMENT_SET_NO":999,"REV_AT_EPOCH":3627,"BSTAR":0.00061437719,"MEAN_MOTION_DOT":4.44e-5,"MEAN_MOTION_DDOT":0},{"OBJECT_NAME":"KUIPER-00090","OBJECT_ID":"2025-151V","EPOCH":"2026-03-14T21:11:16.222560","MEAN_MOTION":14.79926453,"ECCENTRICITY":5.373e-5,"INCLINATION":51.8967,"RA_OF_ASC_NODE":255.1565,"ARG_OF_PERICENTER":101.8331,"MEAN_ANOMALY":258.2692,"EPHEMERIS_TYPE":0,"CLASSIFICATION_TYPE":"U","NORAD_CAT_ID":64835,"ELEMENT_SET_NO":999,"REV_AT_EPOCH":3638,"BSTAR":-2.4594619e-5,"MEAN_MOTION_DOT":-4.09e-6,"MEAN_MOTION_DDOT":0},{"OBJECT_NAME":"KUIPER-00091","OBJECT_ID":"2025-151W","EPOCH":"2026-03-14T19:27:06.433632","MEAN_MOTION":14.80257439,"ECCENTRICITY":0.00010876,"INCLINATION":51.8977,"RA_OF_ASC_NODE":260.4608,"ARG_OF_PERICENTER":47.7849,"MEAN_ANOMALY":312.3206,"EPHEMERIS_TYPE":0,"CLASSIFICATION_TYPE":"U","NORAD_CAT_ID":64836,"ELEMENT_SET_NO":999,"REV_AT_EPOCH":3630,"BSTAR":0.0033050591,"MEAN_MOTION_DOT":0.00025265,"MEAN_MOTION_DDOT":0},{"OBJECT_NAME":"KUIPER-00092","OBJECT_ID":"2025-151X","EPOCH":"2026-03-14T17:37:28.583904","MEAN_MOTION":14.79929659,"ECCENTRICITY":8.853e-5,"INCLINATION":51.8992,"RA_OF_ASC_NODE":268.2895,"ARG_OF_PERICENTER":101.2284,"MEAN_ANOMALY":258.8778,"EPHEMERIS_TYPE":0,"CLASSIFICATION_TYPE":"U","NORAD_CAT_ID":64837,"ELEMENT_SET_NO":999,"REV_AT_EPOCH":3740,"BSTAR":0.00058729919,"MEAN_MOTION_DOT":4.258e-5,"MEAN_MOTION_DDOT":0},{"OBJECT_NAME":"KUIPER-00093","OBJECT_ID":"2025-151Y","EPOCH":"2026-03-14T17:33:30.613248","MEAN_MOTION":14.79895097,"ECCENTRICITY":8.672e-5,"INCLINATION":51.8986,"RA_OF_ASC_NODE":270.7823,"ARG_OF_PERICENTER":85.6778,"MEAN_ANOMALY":274.4283,"EPHEMERIS_TYPE":0,"CLASSIFICATION_TYPE":"U","NORAD_CAT_ID":64838,"ELEMENT_SET_NO":999,"REV_AT_EPOCH":3615,"BSTAR":0.0006153994,"MEAN_MOTION_DOT":4.469e-5,"MEAN_MOTION_DDOT":0},{"OBJECT_NAME":"KUIPER-00094","OBJECT_ID":"2025-151Z","EPOCH":"2026-03-14T19:51:28.352736","MEAN_MOTION":15.04400191,"ECCENTRICITY":0.00057254,"INCLINATION":51.8879,"RA_OF_ASC_NODE":238.7581,"ARG_OF_PERICENTER":308.657,"MEAN_ANOMALY":51.389,"EPHEMERIS_TYPE":0,"CLASSIFICATION_TYPE":"U","NORAD_CAT_ID":64839,"ELEMENT_SET_NO":999,"REV_AT_EPOCH":3661,"BSTAR":0.00069385452,"MEAN_MOTION_DOT":9.539e-5,"MEAN_MOTION_DDOT":0},{"OBJECT_NAME":"KUIPER-00081","OBJECT_ID":"2025-171A","EPOCH":"2026-03-14T20:30:03.353472","MEAN_MOTION":14.79914388,"ECCENTRICITY":8.494e-5,"INCLINATION":51.8987,"RA_OF_ASC_NODE":125.2364,"ARG_OF_PERICENTER":72.1703,"MEAN_ANOMALY":287.9352,"EPHEMERIS_TYPE":0,"CLASSIFICATION_TYPE":"U","NORAD_CAT_ID":65132,"ELEMENT_SET_NO":999,"REV_AT_EPOCH":3380,"BSTAR":0.00062220965,"MEAN_MOTION_DOT":4.523e-5,"MEAN_MOTION_DDOT":0},{"OBJECT_NAME":"KUIPER-00088","OBJECT_ID":"2025-171B","EPOCH":"2026-03-14T13:33:52.268256","MEAN_MOTION":14.79921585,"ECCENTRICITY":7.039e-5,"INCLINATION":51.8986,"RA_OF_ASC_NODE":144.0195,"ARG_OF_PERICENTER":79.9382,"MEAN_ANOMALY":280.166,"EPHEMERIS_TYPE":0,"CLASSIFICATION_TYPE":"U","NORAD_CAT_ID":65133,"ELEMENT_SET_NO":999,"REV_AT_EPOCH":3351,"BSTAR":7.3506455e-5,"MEAN_MOTION_DOT":3.39e-6,"MEAN_MOTION_DDOT":0},{"OBJECT_NAME":"KUIPER-00095","OBJECT_ID":"2025-171C","EPOCH":"2026-03-14T22:00:01.999584","MEAN_MOTION":14.79965776,"ECCENTRICITY":0.00019355,"INCLINATION":51.8968,"RA_OF_ASC_NODE":122.535,"ARG_OF_PERICENTER":110.6075,"MEAN_ANOMALY":208.1276,"EPHEMERIS_TYPE":0,"CLASSIFICATION_TYPE":"U","NORAD_CAT_ID":65134,"ELEMENT_SET_NO":999,"REV_AT_EPOCH":232,"BSTAR":0.001847762,"MEAN_MOTION_DOT":0.00013905,"MEAN_MOTION_DDOT":0},{"OBJECT_NAME":"KUIPER-00096","OBJECT_ID":"2025-171D","EPOCH":"2026-03-14T21:03:09.438912","MEAN_MOTION":14.79933811,"ECCENTRICITY":5.849e-5,"INCLINATION":51.8984,"RA_OF_ASC_NODE":135.1429,"ARG_OF_PERICENTER":84.2244,"MEAN_ANOMALY":275.8785,"EPHEMERIS_TYPE":0,"CLASSIFICATION_TYPE":"U","NORAD_CAT_ID":65135,"ELEMENT_SET_NO":999,"REV_AT_EPOCH":3366,"BSTAR":1.4411568e-5,"MEAN_MOTION_DOT":-1.11e-6,"MEAN_MOTION_DDOT":0},{"OBJECT_NAME":"KUIPER-00097","OBJECT_ID":"2025-171E","EPOCH":"2026-03-14T20:59:18.068352","MEAN_MOTION":14.79935881,"ECCENTRICITY":8.345e-5,"INCLINATION":51.8989,"RA_OF_ASC_NODE":137.7836,"ARG_OF_PERICENTER":64.8596,"MEAN_ANOMALY":295.2453,"EPHEMERIS_TYPE":0,"CLASSIFICATION_TYPE":"U","NORAD_CAT_ID":65136,"ELEMENT_SET_NO":999,"REV_AT_EPOCH":3361,"BSTAR":0.00074968505,"MEAN_MOTION_DOT":5.499e-5,"MEAN_MOTION_DDOT":0}]
