KUIPER-00082            
1 64828U 25151N   26073.90580957  .00004081  00000+0  56408-3 0  9991
2 64828  51.9006 265.0372 0000671  94.5062 265.5977 14.79931528 36252
KUIPER-00083            
1 64829U 25151P   26073.83022315  .00001767  00000+0  26082-3 0  9996
2 64829  51.8991 272.8597 0000791 100.8467 259.2584 14.79912231 37326
KUIPER-00084            
1 64830U 25151Q   26073.88693701  .00004143  00000+0  57240-3 0  9997
2 64830  51.9005 282.5941 0000611  77.4580 282.6450 14.79912396 36000
KUIPER-00085            
1 64831U 25151R   26073.80459257  .00004393  00000+0  60502-3 0  9998
2 64831  51.9018 265.5132 0000869 106.1350 253.9708 14.79926504 36236
KUIPER-00086            
1 64832U 25151S   26073.92882775  .00004104  00000+0  56700-3 0  9992
2 64832  51.9004 274.9332 0000945  76.4762 283.6306 14.79937069 36118
KUIPER-00087            
1 64833U 25151T   26073.88012559 -.00000558  00000+0 -44209-4 0  9996
2 64833  51.8981 257.6259 0000476  79.7436 280.3580 14.79929916 36346
KUIPER-00089            
1 64834U 25151U   26073.80687304  .00004440  00000+0  61438-3 0  9999
2 64834  51.8993 262.9592 0001257  91.8041 268.3065 14.79701684 36270
KUIPER-00090            
1 64835U 25151V   26073.88282665 -.00000409  00000+0 -24595-4 0  9996
2 64835  51.8967 255.1565 0000537 101.8331 258.2692 14.79926453 36389
KUIPER-00091            
1 64836U 25151W   26073.81049113  .00025265  00000+0  33051-2 0  9999
2 64836  51.8977 260.4608 0001087  47.7849 312.3206 14.80257439 36309
KUIPER-00092            
1 64837U 25151X   26073.73435861  .00004258  00000+0  58730-3 0  9991
2 64837  51.8992 268.2895 0000885 101.2284 258.8778 14.79929659 37403
KUIPER-00093            
1 64838U 25151Y   26073.73160432  .00004469  00000+0  61540-3 0  9998
2 64838  51.8986 270.7823 0000867  85.6778 274.4283 14.79895097 36153
KUIPER-00094            
1 64839U 25151Z   26073.82741149  .00009539  00000+0  69385-3 0  9997
2 64839  51.8879 238.7581 0005725 308.6570  51.3890 15.04400191 36619
KUIPER-00081            
1 65132U 25171A   26073.85420548  .00004523  00000+0  62221-3 0  9996
2 65132  51.8987 125.2364 0000849  72.1703 287.9352 14.79914388 33805
KUIPER-00088            
1 65133U 25171B   26073.56518829  .00000339  00000+0  73506-4 0  9995
2 65133  51.8986 144.0195 0000703  79.9382 280.1660 14.79921585 33515
KUIPER-00095            
1 65134U 25171C   26073.91668981  .00013905  00000+0  18478-2 0  9998
2 65134  51.8968 122.5350 0001935 110.6075 208.1276 14.79965776  2328
KUIPER-00096            
1 65135U 25171D   26073.87719258 -.00000111  00000+0  14412-4 0  9990
2 65135  51.8984 135.1429 0000584  84.2244 275.8785 14.79933811 33669
KUIPER-00097            
1 65136U 25171E   26073.87451468  .00005499  00000+0  74969-3 0  9992
2 65136  51.8989 137.7836 0000834  64.8596 295.2453 14.79935881 33619
